0 COSMOS 2251 DEB
1 38068U 93036BSA 24020.29909686  .00001450  00000-0  52652-3 0  9996
2 38068  74.0225 138.6442 0026288  32.5919 327.6849 14.33999511567136
0 COSMOS 2251 DEB
1 38190U 93036BSE 24017.13325718  .00018397  00000-0  34643-2 0  9996
2 38190  74.0497 303.8069 0013615 173.0551 187.0809 14.64482187648164
0 COSMOS 2251 DEB
1 38196U 93036BSL 24014.40025091  .00123879  00000-0  12690-1 0  9999
2 38196  73.8670  29.0528 0109408 353.0994   6.8670 14.85451713552683
0 COSMOS 2251 DEB
1 38212U 93036BTC 24019.34444166  .00004778  00000-0  72664-3 0  9999
2 38212  74.0580 348.8374 0108383 239.0842 119.9640 14.70350473710923
0 COSMOS 2251 DEB
1 38479U 93036BTP 24008.75635508  .00003243  00000-0  12660-2 0  9994
2 38479  74.0144  32.2133 0111194 304.0309 176.3693 14.26692381546050
0 COSMOS 2251 DEB
1 38481U 93036BTR 24003.07165345  .00003268  00000-0  21202-2 0  9993
2 38481  73.9380 148.8958 0243949 232.7171 125.1494 13.89529082491831
0 COSMOS 2251 DEB
1 38483U 93036BTT 24018.08813021  .00005703  00000-0  23751-2 0  9990
2 38483  74.2590 169.0431 0125203 121.6449 239.6985 14.22335932535772
0 COSMOS 2251 DEB
1 38486U 93036BTW 24010.96906427  .00010277  00000-0  27835-2 0  9994
2 38486  73.9541 110.5646 0044461  46.0001  73.6068 14.47186606654269
0 COSMOS 2251 DEB
1 38487U 93036BTX 24016.92472596  .00019898  00000-0  27444-2 0  9996
2 38487  74.0018 358.5555 0065704 331.2535  28.5023 14.76637417696582
0 COSMOS 2251 DEB
1 39109U 93036BTY 24008.06240917  .00002721  00000-0  52741-3 0  9990
2 39109  74.0453 143.6310 0067291  68.4993  54.7247 14.62330439548426
0 COSMOS 2251 DEB
1 39110U 93036BTZ 24004.32716729  .00002519  00000-0  42545-3 0  9992
2 39110  73.9613   0.6544 0104331  39.4208  23.4898 14.66422408520785
0 COSMOS 2251 DEB
1 39111U 93036BUA 23360.72376462  .00013345  00000-0  28151-2 0  9992
2 39111  74.0314  15.3211 0022377 259.6684 100.1958 14.59291375545194
0 COSMOS 2251 DEB
1 39546U 93036BUC 24017.80945816  .00008557  00000-0  13973-2 0  9993
2 39546  74.0036  69.8131 0063378  38.6567 321.9114 14.69675363697989
0 COSMOS 2251 DEB
1 39547U 93036BUD 24014.52751365  .00020115  00000-0  41792-2 0  9998
2 39547  74.0212 312.4330 0014537 223.2559 254.3562 14.59994660615035
0 COSMOS 2251 DEB
1 39553U 93036BUK 24003.97892206  .00001540  00000-0  95762-3 0  9990
2 39553  74.0305 113.1041 0216158  48.0603 313.8728 13.94864499657154
0 COSMOS 2251 DEB
1 39554U 93036BUL 24014.54355639  .00015356  00000-0  27414-2 0  9998
2 39554  74.0276 211.8326 0018713 162.8304 230.6330 14.66851126540210
0 COSMOS 2251 DEB
1 39582U 93036BUM 24005.74986199  .00013403  00000-0  18775-2 0  9993
2 39582  74.0150 150.3532 0056753  70.8409 289.8897 14.76432770600748
0 COSMOS 2251 DEB
1 39583U 93036BUN 23363.43249913  .00006547  00000-0  16473-2 0  9996
2 39583  73.9356 160.2718 0180243  72.0207 290.0501 14.42013250514171
0 COSMOS 2251 DEB
1 39585U 93036BUQ 24018.12988987  .00002507  00000-0  56450-3 0  9995
2 39585  74.0384 180.3787 0070645 119.3441 241.4804 14.55397093524030
0 COSMOS 2251 DEB
1 39586U 93036BUR 23364.88722400  .00001088  00000-0  50896-3 0  9999
2 39586  74.0101  65.4592 0105216   3.8026 116.3604 14.18571055747614
0 COSMOS 2251 DEB
1 39588U 93036BUT 24020.00467799  .00026303  00000-0  58287-2 0  9990
2 39588  74.1233 132.0170 0061212 237.5062 244.9629 14.55869589520155
0 COSMOS 2251 DEB
1 40218U 93036BUX 23363.72734742  .00001674  00000-0  55691-3 0  9996
2 40218  74.0285 128.7092 0017379  28.7230 331.4878 14.38375915485839
