OBJECT_NAME,OBJECT_ID,EPOCH,MEAN_MOTION,ECCENTRICITY,INCLINATION,RA_OF_ASC_NODE,ARG_OF_PERICENTER,MEAN_ANOMALY,EPHEMERIS_TYPE,CLASSIFICATION_TYPE,NORAD_CAT_ID,ELEMENT_SET_NO,REV_AT_EPOCH,BSTAR,MEAN_MOTION_DOT,MEAN_MOTION_DDOT
COSMOS 2251 DEB,1993-036BSA,2024-01-20T07:10:41.968704,14.33999511,.0026288,74.0225,138.6442,32.5919,327.6849,0,U,38068,999,56713,.52652E-3,.145E-4,0
COSMOS 2251 DEB,1993-036BSE,2024-01-17T03:11:53.420352,14.64482187,.0013615,74.0497,303.8069,173.0551,187.0809,0,U,38190,999,64816,.34643E-2,.18397E-3,0
COSMOS 2251 DEB,1993-036BSL,2024-01-14T09:36:21.678624,14.85451713,.0109408,73.8670,29.0528,353.0994,6.8670,0,U,38196,999,55268,.1269E-1,.123879E-2,0
COSMOS 2251 DEB,1993-036BTC,2024-01-19T08:15:59.759424,14.70350473,.0108383,74.0580,348.8374,239.0842,119.9640,0,U,38212,999,71092,.72664E-3,.4778E-4,0
COSMOS 2251 DEB,1993-036BTP,2024-01-08T18:09:09.078912,14.26692381,.0111194,74.0144,32.2133,304.0309,176.3693,0,U,38479,999,54605,.1266E-2,.3243E-4,0
COSMOS 2251 DEB,1993-036BTR,2024-01-03T01:43:10.858080,13.89529082,.0243949,73.9380,148.8958,232.7171,125.1494,0,U,38481,999,49183,.21202E-2,.3268E-4,0
COSMOS 2251 DEB,1993-036BTT,2024-01-18T02:06:54.450144,14.22335932,.0125203,74.2590,169.0431,121.6449,239.6985,0,U,38483,999,53577,.23751E-2,.5703E-4,0
COSMOS 2251 DEB,1993-036BTW,2024-01-10T23:15:27.152928,14.47186606,.0044461,73.9541,110.5646,46.0001,73.6068,0,U,38486,999,65426,.27835E-2,.10277E-3,0
COSMOS 2251 DEB,1993-036BTX,2024-01-16T22:11:36.322944,14.76637417,.0065704,74.0018,358.5555,331.2535,28.5023,0,U,38487,999,69658,.27444E-2,.19898E-3,0
COSMOS 2251 DEB,1993-036BTY,2024-01-08T01:29:52.152288,14.62330439,.0067291,74.0453,143.6310,68.4993,54.7247,0,U,39109,999,54842,.52741E-3,.2721E-4,0
COSMOS 2251 DEB,1993-036BTZ,2024-01-04T07:51:07.253856,14.66422408,.0104331,73.9613,0.6544,39.4208,23.4898,0,U,39110,999,52078,.42545E-3,.2519E-4,0
COSMOS 2251 DEB,1993-036BUA,2023-12-26T17:22:13.263168,14.59291375,.0022377,74.0314,15.3211,259.6684,100.1958,0,U,39111,999,54519,.28151E-2,.13345E-3,0
COSMOS 2251 DEB,1993-036BUC,2024-01-17T19:25:37.185024,14.69675363,.0063378,74.0036,69.8131,38.6567,321.9114,0,U,39546,999,69798,.13973E-2,.8557E-4,0
COSMOS 2251 DEB,1993-036BUD,2024-01-14T12:39:37.179360,14.59994660,.0014537,74.0212,312.4330,223.2559,254.3562,0,U,39547,999,61503,.41792E-2,.20115E-3,0
COSMOS 2251 DEB,1993-036BUK,2024-01-03T23:29:38.865984,13.94864499,.0216158,74.0305,113.1041,48.0603,313.8728,0,U,39553,999,65715,.95762E-3,.154E-4,0
COSMOS 2251 DEB,1993-036BUL,2024-01-14T13:02:43.272096,14.66851126,.0018713,74.0276,211.8326,162.8304,230.6330,0,U,39554,999,54021,.27414E-2,.15356E-3,0
COSMOS 2251 DEB,1993-036BUM,2024-01-05T17:59:48.075936,14.76432770,.0056753,74.0150,150.3532,70.8409,289.8897,0,U,39582,999,60074,.18775E-2,.13403E-3,0
COSMOS 2251 DEB,1993-036BUN,2023-12-29T10:22:47.924832,14.42013250,.0180243,73.9356,160.2718,72.0207,290.0501,0,U,39583,999,51417,.16473E-2,.6547E-4,0
COSMOS 2251 DEB,1993-036BUQ,2024-01-18T03:07:02.484768,14.55397093,.0070645,74.0384,180.3787,119.3441,241.4804,0,U,39585,999,52403,.5645E-3,.2507E-4,0
COSMOS 2251 DEB,1993-036BUR,2023-12-30T21:17:36.153600,14.18571055,.0105216,74.0101,65.4592,3.8026,116.3604,0,U,39586,999,74761,.50896E-3,.1088E-4,0
COSMOS 2251 DEB,1993-036BUT,2024-01-20T00:06:44.178336,14.55869589,.0061212,74.1233,132.0170,237.5062,244.9629,0,U,39588,999,52015,.58287E-2,.26303E-3,0
COSMOS 2251 DEB,1993-036BUX,2023-12-29T17:27:22.817088,14.38375915,.0017379,74.0285,128.7092,28.7230,331.4878,0,U,40218,999,48583,.55691E-3,.1674E-4,0
